[{"OBJECT_NAME":"STARLINK-4390","OBJECT_ID":"2022-105F","EPOCH":"2026-03-09T15:44:45.266208","MEAN_MOTION":15.01279333,"ECCENTRICITY":0.000187,"INCLINATION":97.6025,"RA_OF_ASC_NODE":310.125,"ARG_OF_PERICENTER":49.5076,"MEAN_ANOMALY":310.6311,"EPHEMERIS_TYPE":0,"CLASSIFICATION_TYPE":"U","NORAD_CAT_ID":53653,"ELEMENT_SET_NO":999,"REV_AT_EPOCH":19322,"BSTAR":-0.00023328,"MEAN_MOTION_DOT":-3.055e-5,"MEAN_MOTION_DDOT":0},{"OBJECT_NAME":"ICEYE-X51","OBJECT_ID":"2025-052AZ","EPOCH":"2026-03-09T22:06:54.407520","MEAN_MOTION":15.00892494,"ECCENTRICITY":0.00020982,"INCLINATION":97.7349,"RA_OF_ASC_NODE":324.3635,"ARG_OF_PERICENTER":65.1031,"MEAN_ANOMALY":295.041,"EPHEMERIS_TYPE":0,"CLASSIFICATION_TYPE":"U","NORAD_CAT_ID":63257,"ELEMENT_SET_NO":999,"REV_AT_EPOCH":5391,"BSTAR":0.00046355347,"MEAN_MOTION_DOT":5.842e-5,"MEAN_MOTION_DDOT":0}]
